GLOBALSTAR M001 [-]     
1 25162U 98008A   23251.77136792 -.00000044  00000+0  40119-3 0  9992
2 25162  52.0040  57.5020 0001454   4.6325   8.4789 12.38167099163510
GLOBALSTAR M004 [-]     
1 25163U 98008B   23251.29071338 -.00000076  00000+0  15639-3 0  9998
2 25163  51.9970 230.6407 0002895 295.7237 173.0461 12.63337269179798
GLOBALSTAR M002 [-]     
1 25164U 98008C   23251.83782062 -.00000075  00000+0  22701-4 0  9990
2 25164  52.0021  63.3005 0002041  55.4566 304.6446 11.61495047108841
GLOBALSTAR M003 [-]     
1 25165U 98008D   23251.72788288  .00000029  00000+0  12609-2 0  9997
2 25165  51.9724 161.8711 0008321  70.0696 305.8088 12.11935241154715
GLOBALSTAR M014 [-]     
1 25306U 98023A   23251.60932885 -.00000076  00000+0  17953-4 0  9994
2 25306  51.9875   0.7109 0000506 201.7009 257.7308 11.65459080115660
GLOBALSTAR M006 [-]     
1 25307U 98023B   23251.85945503 -.00000055  00000+0  41447-3 0  9994
2 25307  51.9966  28.3565 0003842  35.9544 132.8441 11.58153520141821
GLOBALSTAR M015 [-]     
1 25308U 98023C   23251.91116397 -.00000074  00000+0 -10040-4 0  9991
2 25308  51.9811  97.0461 0012850   9.4269  96.3943 11.48849164119683
GLOBALSTAR M008 [-]     
1 25309U 98023D   23251.85623241 -.00000043  00000+0  41492-3 0  9995
2 25309  51.9953 274.7629 0002381 247.3828 287.6854 12.36027114157794
